NORAD_CAT_ID,OBJECT_NAME,OBJECT_TYPE,EPOCH,MEAN_MOTION,ECCENTRICITY,INCLINATION,RA_OF_ASC_NODE,ARG_OF_PERICENTER,MEAN_ANOMALY,BSTAR,MEAN_MOTION_DOT,MEAN_MOTION_DDOT,TLE_LINE0,TLE_LINE1,TLE_LINE2,SEMIMAJOR_AXIS,PERIOD,APOGEE,PERIGEE,DECAYED
49175.0,STARLINK-3087,PAYLOAD,2022-09-25 19:41:43,14.98328915,0.0003109999999999,69.9996,213.5513,256.2117,103.8696,2.9313e-05,2.57e-06,0.0,0 STARLINK-3087,1 49175U 21082AX  22268.82064428  .00000257  00000-0  29313-4 0  9999,2 49175  69.9996 213.5513 0003110 256.2117 103.8696 14.98328915 57606,6950.196,96.107,574.2230000000002,569.9,0.0
49175.0,STARLINK-3087,PAYLOAD,2022-09-26 10:06:55,14.98333448,0.0003148999999999,69.9996,212.0363,255.3835,104.6975,-2.8688e-05,-4.35e-06,0.0,0 STARLINK-3087,1 49175U 21082AX  22269.42147997 -.00000435  00000-0 -28688-4 0  9993,2 49175  69.9996 212.0363 0003149 255.3835 104.6975 14.98333448 57697,6950.182,96.107,574.236,569.859,0.0
49175.0,STARLINK-3087,PAYLOAD,2022-09-26 19:43:44,14.98327135,0.0003117,69.9996,211.0264,256.9009,103.1802,-0.00014961,-1.878e-05,0.0,0 STARLINK-3087,1 49175U 21082AX  22269.82204650 -.00001878  00000-0 -14961-3 0  9997,2 49175  69.9996 211.0264 0003117 256.9009 103.1802 14.98327135 57757,6950.2019999999975,96.107,574.2330000000002,569.9,0.0
49175.0,STARLINK-3087,PAYLOAD,2022-09-27 03:44:25,14.9832215,0.0003215,69.9998,210.185,256.1559,103.9242,-3.1947e-05,-4.74e-06,0.0,0 STARLINK-3087,1 49175U 21082AX  22270.15584832 -.00000474  00000-0 -31947-4 0  9993,2 49175  69.9998 210.1850 0003215 256.1559 103.9242 14.98322150 57805,6950.217,96.108,574.317,569.8480000000002,0.0
49175.0,STARLINK-3087,PAYLOAD,2022-09-27 13:21:13,14.98328684,0.0003215,69.9998,209.175,256.276,103.8042,9.4936e-06,2e-07,0.0,0 STARLINK-3087,1 49175U 21082AX  22270.55640471  .00000020  00000-0  94936-5 0  9992,2 49175  69.9998 209.1750 0003215 256.2760 103.8042 14.98328684 57868,6950.196999999999,96.107,574.2959999999998,569.827,0.0
49175.0,STARLINK-3087,PAYLOAD,2022-09-27 19:45:45,14.98334734,0.0003215,69.9997,208.5018,256.1787,103.9014,4.4186000000000014e-05,4.34e-06,0.0,0 STARLINK-3087,1 49175U 21082AX  22270.82344035  .00000434  00000-0  44186-4 0  9999,2 49175  69.9997 208.5018 0003215 256.1787 103.9014 14.98334734 57903,6950.178000000001,96.107,574.278,569.809,0.0
49175.0,STARLINK-3087,PAYLOAD,2022-09-28 13:23:13,14.98342968,0.0003241,69.9999,206.6502,255.974,104.1059,0.00026881,3.117e-05,0.0,0 STARLINK-3087,1 49175U 21082AX  22271.55779362  .00003117  00000-0  26881-3 0  9997,2 49175  69.9999 206.6502 0003241 255.9740 104.1059 14.98342968 58010,6950.153,96.106,574.27,569.765,0.0
49175.0,STARLINK-3087,PAYLOAD,2022-09-28 18:11:38,14.98329578,0.0003193,70.0012,206.1457,256.8934,103.1868,9.9105e-05,1.09e-05,0.0,0 STARLINK-3087,1 49175U 21082AX  22271.75808493  .00001090  00000-0  99105-4 0  9995,2 49175  70.0012 206.1457 0003193 256.8934 103.1868 14.98329578 58046,6950.194,96.107,574.278,569.84,0.0
49175.0,STARLINK-3087,PAYLOAD,2022-09-28 19:47:46,14.98329085,0.0003193,69.9999,205.9775,256.3117,103.7687,0.00010473,1.157e-05,0.0,0 STARLINK-3087,1 49175U 21082AX  22271.82484481  .00001157  00000-0  10473-3 0  9994,2 49175  69.9999 205.9775 0003193 256.3117 103.7687 14.98329085 58054,6950.196,96.107,574.28,569.842,0.0
49175.0,STARLINK-3087,PAYLOAD,2022-09-29 13:25:15,14.98318823,0.00031,69.9999,204.1258,258.0002,102.081,0.0003802,4.445e-05,0.0,0 STARLINK-3087,1 49175U 21082AX  22272.55920840  .00004445  00000-0  38020-3 0  9990,2 49175  69.9999 204.1258 0003100 258.0002 102.0810 14.98318823 58161,6950.227,96.108,574.247,569.938,0.0
49175.0,STARLINK-3087,PAYLOAD,2022-09-29 19:49:47,14.98335031,0.0003162,69.9999,203.4526,255.5932,104.4876,0.00011442,1.273e-05,0.0,0 STARLINK-3087,1 49175U 21082AX  22272.82624055  .00001273  00000-0  11442-3 0  9994,2 49175  69.9999 203.4526 0003162 255.5932 104.4876 14.98335031 58206,6950.177,96.107,574.24,569.845,0.0
49175.0,STARLINK-3087,PAYLOAD,2022-09-30 11:51:07,14.98336424,0.0003171999999999,70.0001,201.7693,256.0476,104.033,1.4053e-05,7.5e-07,0.0,0 STARLINK-3087,1 49175U 21082AX  22273.49384074  .00000075  00000-0  14053-4 0  9993,2 49175  70.0001 201.7693 0003172 256.0476 104.0330 14.98336424 58308,6950.1730000000025,96.107,574.243,569.8330000000002,0.0
49175.0,STARLINK-3087,PAYLOAD,2022-09-30 18:15:39,14.98340802,0.0003188999999999,70.0001,201.0959,256.3553,103.7251,3.3559e-05,3.08e-06,0.0,0 STARLINK-3087,1 49175U 21082AX  22273.76087628  .00000308  00000-0  33559-4 0  9999,2 49175  70.0001 201.0959 0003189 256.3553 103.7251 14.98340802 58340,6950.159000000002,96.106,574.241,569.808,0.0
49175.0,STARLINK-3087,PAYLOAD,2022-10-01 03:52:27,14.9834086,0.000314,70.0012,200.086,256.0883,103.9926,0.00023799,2.749e-05,0.0,0 STARLINK-3087,1 49175U 21082AX  22274.16143465  .00002749  00000-0  23799-3 0  9991,2 49175  70.0012 200.0860 0003140 256.0883 103.9926 14.98340860 58404,6950.159000000002,96.106,574.207,569.842,0.0
49175.0,STARLINK-3087,PAYLOAD,2022-10-01 11:53:08,14.98339619,0.0003116,70.0012,199.2444,256.7342,103.3469,0.00017688,2.019e-05,0.0,0 STARLINK-3087,1 49175U 21082AX  22274.49523457  .00002019  00000-0  17688-3 0  9990,2 49175  70.0012 199.2444 0003116 256.7342 103.3469 14.98339619 58452,6950.163000000001,96.106,574.194,569.862,0.0
49175.0,STARLINK-3087,PAYLOAD,2022-10-01 21:29:56,14.98339053,0.0003291,70.0011,198.2344,256.024,104.0553,0.00019834,2.275e-05,0.0,0 STARLINK-3087,1 49175U 21082AX  22274.89579406  .00002275  00000-0  19834-3 0  9998,2 49175  70.0011 198.2344 0003291 256.0240 104.0553 14.98339053 58514,6950.165,96.106,574.317,569.743,0.0
49175.0,STARLINK-3087,PAYLOAD,2022-10-02 03:54:29,14.98329796,0.0003143,70.0013,197.5613,255.4795,104.6015,-4.9097e-05,-6.79e-06,0.0,0 STARLINK-3087,1 49175U 21082AX  22275.16283641 -.00000679  00000-0 -49097-4 0  9995,2 49175  70.0013 197.5613 0003143 255.4795 104.6015 14.98329796 58557,6950.194,96.107,574.243,569.874,0.0
49175.0,STARLINK-3087,PAYLOAD,2022-10-02 11:55:10,14.98319363,0.0002598,70.003,196.7182,261.5979,98.4886,-0.000274,-3.3600000000000004e-05,0.0,0 STARLINK-3087,1 49175U 21082AX  22275.49664370 -.00003360  00000-0 -27400-3 0  9996,2 49175  70.0030 196.7182 0002598 261.5979  98.4886 14.98319363 58604,6950.226,96.108,573.896,570.285,0.0
49175.0,STARLINK-3087,PAYLOAD,2022-10-02 19:55:50,14.98320747,0.0003245,70.0013,195.8781,256.9284,103.1513,-9.5266e-05,-1.229e-05,0.0,0 STARLINK-3087,1 49175U 21082AX  22275.83044464 -.00001229  00000-0 -95266-4 0  9998,2 49175  70.0013 195.8781 0003245 256.9284 103.1513 14.98320747 58651,6950.222,96.108,574.342,569.831,0.0
49175.0,STARLINK-3087,PAYLOAD,2022-10-03 03:56:30,14.98330494,0.0003111,70.0016,195.0368,256.35400000000004,103.7273,0.00019684,2.256e-05,0.0,0 STARLINK-3087,1 49175U 21082AX  22276.16424393  .00002256  00000-0  19684-3 0  9996,2 49175  70.0016 195.0368 0003111 256.3540 103.7273 14.98330494 58703,6950.191,96.107,574.219,569.894,0.0
49175.0,STARLINK-3087,PAYLOAD,2022-10-03 11:57:10,14.98339962,0.0003115,70.0014,194.1953,255.1472,104.9342,0.00073627,8.705e-05,0.0,0 STARLINK-3087,1 49175U 21082AX  22276.49804332  .00008705  00000-0  73627-3 0  9999,2 49175  70.0014 194.1953 0003115 255.1472 104.9342 14.98339962 58750,6950.1619999999975,96.106,574.192,569.862,0.0
49175.0,STARLINK-3087,PAYLOAD,2022-10-03 16:45:35,14.98345799,0.0003157,70.0015,193.6902,253.8923,106.1889,0.0012095,0.00014374,0.0,0 STARLINK-3087,1 49175U 21082AX  22276.69832316  .00014374  00000-0  12095-2 0  9994,2 49175  70.0015 193.6902 0003157 253.8923 106.1889 14.98345799 58789,6950.144,96.106,574.203,569.815,0.0
49175.0,STARLINK-3087,PAYLOAD,2022-10-04 02:22:22,14.98363812,0.0003167,70.0015,192.6804,253.5843,106.4968,0.0016737,0.00019952,0.0,0 STARLINK-3087,1 49175U 21082AX  22277.09887698  .00019952  00000-0  16737-2 0  9996,2 49175  70.0015 192.6804 0003167 253.5843 106.4968 14.98363812 58842,6950.0880000000025,96.105,574.154,569.752,0.0
49175.0,STARLINK-3087,PAYLOAD,2022-10-04 03:58:31,14.98351578,0.0003141,70.0015,192.5121,253.5693,106.5121,0.000841,9.962e-05,0.0,0 STARLINK-3087,1 49175U 21082AX  22277.16563738  .00009962  00000-0  84100-3 0  9990,2 49175  70.0015 192.5121 0003141 253.5693 106.5121 14.98351578 58857,6950.126,96.106,574.174,569.808,0.0
49175.0,STARLINK-3087,PAYLOAD,2022-10-04 16:47:35,14.98359876,0.0002975,70.0018,191.1656,254.7491,105.3339,0.00093163,0.00011049,0.0,0 STARLINK-3087,1 49175U 21082AX  22277.69971103  .00011049  00000-0  93163-3 0  9995,2 49175  70.0018 191.1656 0002975 254.7491 105.3339 14.98359876 58937,6950.101,96.105,574.033,569.898,0.0
49175.0,STARLINK-3087,PAYLOAD,2022-10-05 04:00:31,14.98338299,0.000321,70.0017,189.9873,253.4971,106.5835,0.00039932,4.676e-05,0.0,0 STARLINK-3087,1 49175U 21082AX  22278.16703312  .00004676  00000-0  39932-3 0  9995,2 49175  70.0017 189.9873 0003210 253.4971 106.5835 14.98338299 59003,6950.167,96.106,574.263,569.8009999999998,0.0
49175.0,STARLINK-3087,PAYLOAD,2022-10-05 20:01:52,14.98331914,0.0003137,70.0022,188.3046,250.8133,109.2687,0.00084969,0.00010061,0.0,0 STARLINK-3087,1 49175U 21082AX  22278.83463801  .00010061  00000-0  84969-3 0  9990,2 49175  70.0022 188.3046 0003137 250.8133 109.2687 14.98331914 59106,6950.187,96.107,574.232,569.872,0.0
49175.0,STARLINK-3087,PAYLOAD,2022-10-06 02:26:24,14.98332585,0.0003166,70.0023,187.6314,252.5628,107.5185,0.00054174,6.377e-05,0.0,0 STARLINK-3087,1 49175U 21082AX  22279.10167808  .00006377  00000-0  54174-3 0  9999,2 49175  70.0023 187.6314 0003166 252.5628 107.5185 14.98332585 59140,6950.185,96.107,574.25,569.849,0.0
49175.0,STARLINK-3087,PAYLOAD,2022-10-06 05:38:41,14.98337814,0.0003201,70.0022,187.2947,253.7808,106.2999,0.00075684,8.951e-05,0.0,0 STARLINK-3087,1 49175U 21082AX  22279.23519718  .00008951  00000-0  75684-3 0  9993,2 49175  70.0022 187.2947 0003201 253.7808 106.2999 14.98337814 59161,6950.169,96.106,574.258,569.809,0.0
